{
"type": "FeatureCollection",
"name": "person2_fire_detections_sample",
"crs": { "type": "name", "properties": { "name": "urn:ogc:def:crs:OGC:1.3:CRS84" } },
"features": [
{ "type": "Feature", "properties": { "detection_id": "DET-08fb08c92056", "branch": "industrial", "facility_id": "P100000124035", "latitude": 9.45344, "longitude": 77.92751, "date": "2026-05-22", "acq_date": "2026-05-22", "acq_time": 211, "frp": 97.8, "brightness": 315.7, "bright_t31": 283.4, "scan": 0.65, "track": 0.77, "confidence": "high", "satellite": "N", "instrument": "VIIRS", "daynight": "D", "type": 0, "baseline_or_population_reference": "59.650000000000006", "deviation_ratio": "1.639564124056999", "anomaly_score": -0.010817853724648718, "fire_event_detected": true, "severity": "MEDIUM", "contributing_factors": [ "isolation_forest_outlier", "spatial_spread" ] }, "geometry": { "type": "Point", "coordinates": [ 77.92751, 9.45344 ] } },
{ "type": "Feature", "properties": { "detection_id": "DET-455a732a5583", "branch": "industrial", "facility_id": "L100000102574", "latitude": 8.7582, "longitude": 78.16111, "date": "2026-07-20", "acq_date": "2026-07-20", "acq_time": 2008, "frp": 55.0, "brightness": 344.1, "bright_t31": 302.6, "scan": 0.5, "track": 0.44, "confidence": "high", "satellite": "N", "instrument": "VIIRS", "daynight": "D", "type": 0, "baseline_or_population_reference": "0.0", "deviation_ratio": "", "anomaly_score": 0.072821817322002824, "fire_event_detected": true, "severity": "MEDIUM", "contributing_factors": [ "hotspot_count_increase" ] }, "geometry": { "type": "Point", "coordinates": [ 78.16111, 8.7582 ] } },
{ "type": "Feature", "properties": { "detection_id": "DET-c3be134f085a", "branch": "industrial", "facility_id": "P100000123915", "latitude": 17.1817, "longitude": 77.34697, "date": "2026-03-15", "acq_date": "2026-03-15", "acq_time": 1050, "frp": 25.4, "brightness": 336.9, "bright_t31": 285.6, "scan": 0.53, "track": 0.57, "confidence": "nominal", "satellite": "N", "instrument": "VIIRS", "daynight": "D", "type": 0, "baseline_or_population_reference": "22.5", "deviation_ratio": "1.1288888888888888", "anomaly_score": -0.07554382942393667, "fire_event_detected": true, "severity": "MEDIUM", "contributing_factors": [ "isolation_forest_outlier" ] }, "geometry": { "type": "Point", "coordinates": [ 77.34697, 17.1817 ] } },
{ "type": "Feature", "properties": { "detection_id": "DET-bee3e1dd76d1", "branch": "industrial", "facility_id": "L100000102366", "latitude": 22.1005, "longitude": 76.52961, "date": "2026-03-24", "acq_date": "2026-03-24", "acq_time": 212, "frp": 28.0, "brightness": 328.3, "bright_t31": 298.2, "scan": 0.52, "track": 0.4, "confidence": "low", "satellite": "N", "instrument": "VIIRS", "daynight": "D", "type": 0, "baseline_or_population_reference": "22.200000000000003", "deviation_ratio": "1.261261261261261", "anomaly_score": -0.0072691519870842214, "fire_event_detected": true, "severity": "MEDIUM", "contributing_factors": [ "isolation_forest_outlier", "spatial_spread" ] }, "geometry": { "type": "Point", "coordinates": [ 76.52961, 22.1005 ] } },
{ "type": "Feature", "properties": { "detection_id": "DET-03b187746e04", "branch": "industrial", "facility_id": "L100000102210", "latitude": 21.11857, "longitude": 72.63706, "date": "2026-06-17", "acq_date": "2026-06-17", "acq_time": 1921, "frp": 43.5, "brightness": 331.6, "bright_t31": 280.4, "scan": 0.67, "track": 0.89, "confidence": "high", "satellite": "N", "instrument": "VIIRS", "daynight": "D", "type": 0, "baseline_or_population_reference": "62.95", "deviation_ratio": "0.6910246227164416", "anomaly_score": -0.0098992563200279715, "fire_event_detected": true, "severity": "MEDIUM", "contributing_factors": [ "isolation_forest_outlier" ] }, "geometry": { "type": "Point", "coordinates": [ 72.63706, 21.11857 ] } },
{ "type": "Feature", "properties": { "detection_id": "DET-37b8552da8a7", "branch": "industrial", "facility_id": "L100000102061", "latitude": 15.70001, "longitude": 80.2489, "date": "2026-06-26", "acq_date": "2026-06-26", "acq_time": 921, "frp": 77.9, "brightness": 333.3, "bright_t31": 302.9, "scan": 0.93, "track": 0.72, "confidence": "low", "satellite": "N", "instrument": "VIIRS", "daynight": "N", "type": 0, "baseline_or_population_reference": "50.42", "deviation_ratio": "1.5450218167393892", "anomaly_score": 0.10929248022118521, "fire_event_detected": true, "severity": "MEDIUM", "contributing_factors": [ "hotspot_count_increase", "spatial_spread" ] }, "geometry": { "type": "Point", "coordinates": [ 80.2489, 15.70001 ] } },
{ "type": "Feature", "properties": { "detection_id": "DET-e8b7517d9a38", "branch": "industrial", "facility_id": "L100000102061", "latitude": 15.70127, "longitude": 80.24936, "date": "2026-08-31", "acq_date": "2026-08-31", "acq_time": 244, "frp": 49.4, "brightness": 311.6, "bright_t31": 296.2, "scan": 1.19, "track": 0.87, "confidence": "nominal", "satellite": "N", "instrument": "VIIRS", "daynight": "D", "type": 0, "baseline_or_population_reference": "54.1", "deviation_ratio": "0.9131238447319777", "anomaly_score": 0.089204326820616076, "fire_event_detected": true, "severity": "MEDIUM", "contributing_factors": [ "hotspot_count_increase", "spatial_spread" ] }, "geometry": { "type": "Point", "coordinates": [ 80.24936, 15.70127 ] } },
{ "type": "Feature", "properties": { "detection_id": "DET-48a59fe70725", "branch": "industrial", "facility_id": "P100000120539", "latitude": 20.21878, "longitude": 86.54887, "date": "2026-03-15", "acq_date": "2026-03-15", "acq_time": 1124, "frp": 18.4, "brightness": 338.1, "bright_t31": 292.9, "scan": 0.99, "track": 0.56, "confidence": "high", "satellite": "N", "instrument": "VIIRS", "daynight": "N", "type": 0, "baseline_or_population_reference": "0.0", "deviation_ratio": "", "anomaly_score": 0.015001449574172154, "fire_event_detected": true, "severity": "MEDIUM", "contributing_factors": [ "hotspot_count_increase", "spatial_spread" ] }, "geometry": { "type": "Point", "coordinates": [ 86.54887, 20.21878 ] } },
{ "type": "Feature", "properties": { "detection_id": "DET-12e8b4f47895", "branch": "industrial", "facility_id": "L100001000153", "latitude": 26.19203, "longitude": 91.92316, "date": "2026-03-10", "acq_date": "2026-03-10", "acq_time": 341, "frp": 37.6, "brightness": 325.0, "bright_t31": 296.8, "scan": 0.7, "track": 0.99, "confidence": "nominal", "satellite": "N", "instrument": "VIIRS", "daynight": "D", "type": 0, "baseline_or_population_reference": "", "deviation_ratio": "", "anomaly_score": -0.02528307974109989, "fire_event_detected": true, "severity": "MEDIUM", "contributing_factors": [ "isolation_forest_outlier", "spatial_spread" ] }, "geometry": { "type": "Point", "coordinates": [ 91.92316, 26.19203 ] } },
{ "type": "Feature", "properties": { "detection_id": "DET-68905991f928", "branch": "industrial", "facility_id": "L100000102199", "latitude": 21.58553, "longitude": 72.22391, "date": "2026-06-21", "acq_date": "2026-06-21", "acq_time": 650, "frp": 16.8, "brightness": 346.1, "bright_t31": 304.3, "scan": 0.44, "track": 0.96, "confidence": "nominal", "satellite": "N", "instrument": "VIIRS", "daynight": "D", "type": 0, "baseline_or_population_reference": "6.574999999999999", "deviation_ratio": "2.5551330798479093", "anomaly_score": -0.012658243481963205, "fire_event_detected": true, "severity": "MEDIUM", "contributing_factors": [ "isolation_forest_outlier", "spatial_spread" ] }, "geometry": { "type": "Point", "coordinates": [ 72.22391, 21.58553 ] } },
{ "type": "Feature", "properties": { "detection_id": "DET-b46518fa5caa", "branch": "industrial", "facility_id": "L100000102073", "latitude": 14.2041, "longitude": 80.0879, "date": "2026-03-11", "acq_date": "2026-03-11", "acq_time": 1745, "frp": 35.7, "brightness": 346.7, "bright_t31": 308.5, "scan": 0.74, "track": 0.44, "confidence": "high", "satellite": "N", "instrument": "VIIRS", "daynight": "N", "type": 0, "baseline_or_population_reference": "", "deviation_ratio": "", "anomaly_score": -0.0078905289018067482, "fire_event_detected": true, "severity": "MEDIUM", "contributing_factors": [ "isolation_forest_outlier", "spatial_spread" ] }, "geometry": { "type": "Point", "coordinates": [ 80.0879, 14.2041 ] } },
{ "type": "Feature", "properties": { "detection_id": "DET-0d320c07a040", "branch": "industrial", "facility_id": "L100000102640", "latitude": 25.14899, "longitude": 81.94263, "date": "2026-03-13", "acq_date": "2026-03-13", "acq_time": 2031, "frp": 109.6, "brightness": 357.2, "bright_t31": 281.0, "scan": 1.16, "track": 0.53, "confidence": "nominal", "satellite": "N", "instrument": "VIIRS", "daynight": "N", "type": 0, "baseline_or_population_reference": "", "deviation_ratio": "", "anomaly_score": -0.029230917533910383, "fire_event_detected": true, "severity": "MEDIUM", "contributing_factors": [ "isolation_forest_outlier", "spatial_spread" ] }, "geometry": { "type": "Point", "coordinates": [ 81.94263, 25.14899 ] } },
{ "type": "Feature", "properties": { "detection_id": "DET-8394335c8cb4", "branch": "industrial", "facility_id": "L100000102372", "latitude": 21.92286, "longitude": 78.13026, "date": "2026-03-09", "acq_date": "2026-03-09", "acq_time": 1954, "frp": 64.7, "brightness": 331.9, "bright_t31": 306.4, "scan": 0.56, "track": 0.39, "confidence": "nominal", "satellite": "N", "instrument": "VIIRS", "daynight": "D", "type": 0, "baseline_or_population_reference": "", "deviation_ratio": "", "anomaly_score": -0.016175579535839146, "fire_event_detected": true, "severity": "MEDIUM", "contributing_factors": [ "isolation_forest_outlier" ] }, "geometry": { "type": "Point", "coordinates": [ 78.13026, 21.92286 ] } },
{ "type": "Feature", "properties": { "detection_id": "DET-12bf7b82940e", "branch": "industrial", "facility_id": "P100000127213", "latitude": 22.76724, "longitude": 73.3833, "date": "2026-05-26", "acq_date": "2026-05-26", "acq_time": 345, "frp": 16.8, "brightness": 347.1, "bright_t31": 298.9, "scan": 0.87, "track": 0.68, "confidence": "nominal", "satellite": "N", "instrument": "VIIRS", "daynight": "D", "type": 0, "baseline_or_population_reference": "20.85", "deviation_ratio": "0.8057553956834532", "anomaly_score": -0.018628018120317336, "fire_event_detected": true, "severity": "MEDIUM", "contributing_factors": [ "isolation_forest_outlier", "spatial_spread" ] }, "geometry": { "type": "Point", "coordinates": [ 73.3833, 22.76724 ] } },
{ "type": "Feature", "properties": { "detection_id": "DET-95904f443c26", "branch": "industrial", "facility_id": "L100000102210", "latitude": 21.12294, "longitude": 72.63897, "date": "2026-03-21", "acq_date": "2026-03-21", "acq_time": 2356, "frp": 48.0, "brightness": 314.2, "bright_t31": 305.8, "scan": 0.64, "track": 0.54, "confidence": "high", "satellite": "N", "instrument": "VIIRS", "daynight": "D", "type": 0, "baseline_or_population_reference": "48.0", "deviation_ratio": "1.0", "anomaly_score": -0.020720325338274503, "fire_event_detected": true, "severity": "MEDIUM", "contributing_factors": [ "isolation_forest_outlier" ] }, "geometry": { "type": "Point", "coordinates": [ 72.63897, 21.12294 ] } },
{ "type": "Feature", "properties": { "detection_id": "DET-604487a5d44a", "branch": "industrial", "facility_id": "L100000102061", "latitude": 15.70002, "longitude": 80.2524, "date": "2026-08-31", "acq_date": "2026-08-31", "acq_time": 554, "frp": 18.7, "brightness": 330.3, "bright_t31": 292.9, "scan": 0.6, "track": 0.72, "confidence": "nominal", "satellite": "N", "instrument": "VIIRS", "daynight": "N", "type": 0, "baseline_or_population_reference": "54.1", "deviation_ratio": "0.3456561922365989", "anomaly_score": 0.089204326820616076, "fire_event_detected": true, "severity": "MEDIUM", "contributing_factors": [ "hotspot_count_increase", "spatial_spread" ] }, "geometry": { "type": "Point", "coordinates": [ 80.2524, 15.70002 ] } },
{ "type": "Feature", "properties": { "detection_id": "DET-9ef5e12cbd68", "branch": "industrial", "facility_id": "P100000123945", "latitude": 11.35508, "longitude": 79.2251, "date": "2026-07-18", "acq_date": "2026-07-18", "acq_time": 131, "frp": 11.8, "brightness": 318.8, "bright_t31": 284.5, "scan": 0.8, "track": 0.66, "confidence": "high", "satellite": "N", "instrument": "VIIRS", "daynight": "N", "type": 0, "baseline_or_population_reference": "17.4", "deviation_ratio": "0.67816091954023", "anomaly_score": -0.006772157993714556, "fire_event_detected": true, "severity": "MEDIUM", "contributing_factors": [ "isolation_forest_outlier" ] }, "geometry": { "type": "Point", "coordinates": [ 79.2251, 11.35508 ] } },
{ "type": "Feature", "properties": { "detection_id": "DET-4e45549bf87e", "branch": "industrial", "facility_id": "L100000102671", "latitude": 23.55537, "longitude": 87.24628, "date": "2026-08-23", "acq_date": "2026-08-23", "acq_time": 18, "frp": 44.6, "brightness": 317.2, "bright_t31": 305.3, "scan": 0.86, "track": 0.96, "confidence": "high", "satellite": "N", "instrument": "VIIRS", "daynight": "D", "type": 0, "baseline_or_population_reference": "48.075", "deviation_ratio": "0.9277171086843473", "anomaly_score": -0.0028029663898935242, "fire_event_detected": true, "severity": "MEDIUM", "contributing_factors": [ "isolation_forest_outlier", "spatial_spread" ] }, "geometry": { "type": "Point", "coordinates": [ 87.24628, 23.55537 ] } },
{ "type": "Feature", "properties": { "detection_id": "DET-16f4cc497348", "branch": "industrial", "facility_id": "P100000120526", "latitude": 23.67408, "longitude": 86.10721, "date": "2026-06-11", "acq_date": "2026-06-11", "acq_time": 22, "frp": 474.2, "brightness": 410.3, "bright_t31": 310.6, "scan": 1.28, "track": 0.86, "confidence": "high", "satellite": "N", "instrument": "VIIRS", "daynight": "N", "type": 0, "baseline_or_population_reference": "73.375", "deviation_ratio": "6.462691652470188", "anomaly_score": -0.32992074342494682, "fire_event_detected": true, "severity": "HIGH", "contributing_factors": [ "frp_spike", "hotspot_count_increase", "isolation_forest_outlier", "spatial_spread" ] }, "geometry": { "type": "Point", "coordinates": [ 86.10721, 23.67408 ] } },
{ "type": "Feature", "properties": { "detection_id": "DET-f989ed6c3c41", "branch": "industrial", "facility_id": "P100000123915", "latitude": 17.18584, "longitude": 77.35096, "date": "2026-03-19", "acq_date": "2026-03-19", "acq_time": 214, "frp": 13.2, "brightness": 311.2, "bright_t31": 293.9, "scan": 1.13, "track": 0.4, "confidence": "high", "satellite": "N", "instrument": "VIIRS", "daynight": "D", "type": 0, "baseline_or_population_reference": "21.833333333333332", "deviation_ratio": "0.6045801526717557", "anomaly_score": -0.059159432332864359, "fire_event_detected": true, "severity": "MEDIUM", "contributing_factors": [ "isolation_forest_outlier", "spatial_spread" ] }, "geometry": { "type": "Point", "coordinates": [ 77.35096, 17.18584 ] } }
]
}
